CELESTIS-02 & TAURUS R/B
1 25160U 98007D   24360.61081356  .00000539  00000+0  29478-3 0  9992
2 25160 108.0060 325.2187 0063159 331.9871 121.6671 14.22211713393930
